{"type": "FeatureCollection", "features": [ {"type": "Feature", "properties": {"norad_id": 34553, "name": "COSMOS 2251 DEB", "group": "cosmos-2251-debris", "lat": 63.24164350573111, "lon": -50.54257529069866, "alt_km": 701.9997220170308, "timestamp": "2025-12-27T08:36:18.779217+00:00", "meta": {"OBJECT_NAME": "COSMOS 2251 DEB", "OBJECT_ID": "1993-036UP", "EPOCH": "2025-12-26T10:49:08.948064", "MEAN_MOTION": 14.57851907, "ECCENTRICITY": 0.0019035, "INCLINATION": 74.025, "RA_OF_ASC_NODE": 165.8036, "ARG_OF_PERICENTER": 242.4865, "MEAN_ANOMALY": 147.2003, "EPHEMERIS_TYPE": 0, "CLASSIFICATION_TYPE": "U", "NORAD_CAT_ID": 34553, "ELEMENT_SET_NO": 999, "REV_AT_EPOCH": 88296, "BSTAR": 0.0012095, "MEAN_MOTION_DOT": 5.528e-05, "MEAN_MOTION_DDOT": 0}, "tle": {"line1": "1 34553U 93036UP  25360.45079801  .00005528  00000+0  12095-2 0  9999", "line2": "2 34553  74.0250 165.8036 0019035 242.4865 147.2003 14.57851907882965"}}, "geometry": {"type": "Point", "coordinates": [-50.54257529069866, 63.24164350573111]}}, {"type": "Feature", "properties": {"norad_id": 34554, "name": "COSMOS 2251 DEB", "group": "cosmos-2251-debris", "lat": -67.94539841303111, "lon": 137.01822195615145, "alt_km": 768.3353096554583, "timestamp": "2025-12-27T08:36:18.779228+00:00", "meta": {"OBJECT_NAME": "COSMOS 2251 DEB", "OBJECT_ID": "1993-036UQ", "EPOCH": "2025-12-26T18:12:27.499968", "MEAN_MOTION": 14.37965556, "ECCENTRICITY": 0.00235796, "INCLINATION": 74.039, "RA_OF_ASC_NODE": 273.1783, "ARG_OF_PERICENTER": 332.916, "MEAN_ANOMALY": 57.668, "EPHEMERIS_TYPE": 0, "CLASSIFICATION_TYPE": "U", "NORAD_CAT_ID": 34554, "ELEMENT_SET_NO": 999, "REV_AT_EPOCH": 87957, "BSTAR": 0.00031632746, "MEAN_MOTION_DOT": 9.33e-06, "MEAN_MOTION_DDOT": 0}, "tle": {"line1": "1 34554U 93036UQ  25360.75865162  .00000933  00000+0  31633-3 0  9991", "line2": "2 34554  74.0390 273.1783 0023579 332.9160  57.6680 14.37965556879576"}}, "geometry": {"type": "Point", "coordinates": [137.01822195615145, -67.94539841303111]}}, {"type": "Feature", "properties": {"norad_id": 34556, "name": "COSMOS 2251 DEB", "group": "cosmos-2251-debris", "lat": 0.026376128029375084, "lon": 96.12325688096732, "alt_km": 641.34770387341, "timestamp": "2025-12-27T08:36:18.779238+00:00", "meta": {"OBJECT_NAME": "COSMOS 2251 DEB", "OBJECT_ID": "1993-036US", "EPOCH": "2025-12-26T06:45:30.335040", "MEAN_MOTION": 14.78213795, "ECCENTRICITY": 0.0006041, "INCLINATION": 74.0152, "RA_OF_ASC_NODE": 98.2328, "ARG_OF_PERICENTER": 157.1628, "MEAN_ANOMALY": 234.2756, "EPHEMERIS_TYPE": 0, "CLASSIFICATION_TYPE": "U", "NORAD_CAT_ID": 34556, "ELEMENT_SET_NO": 999, "REV_AT_EPOCH": 88529, "BSTAR": 0.0021721, "MEAN_MOTION_DOT": 0.00015763, "MEAN_MOTION_DDOT": 0}, "tle": {"line1": "1 34556U 93036US  25360.28160110  .00015763  00000+0  21721-2 0  9995", "line2": "2 34556  74.0152  98.2328 0006041 157.1628 234.2756 14.78213795885295"}}, "geometry": {"type": "Point", "coordinates": [96.12325688096732, 0.026376128029375084]}}, {"type": "Feature", "properties": {"norad_id": 34560, "name": "COSMOS 2251 DEB", "group": "cosmos-2251-debris", "lat": -43.80095312220672, "lon": 97.69716082226488, "alt_km": 663.6473516677261, "timestamp": "2025-12-27T08:36:18.779248+00:00", "meta": {"OBJECT_NAME": "COSMOS 2251 DEB", "OBJECT_ID": "1993-036UW", "EPOCH": "2025-12-27T01:27:56.371968", "MEAN_MOTION": 14.72514368, "ECCENTRICITY": 0.0013484, "INCLINATION": 74.0165, "RA_OF_ASC_NODE": 114.2311, "ARG_OF_PERICENTER": 197.7057, "MEAN_ANOMALY": 339.8714, "EPHEMERIS_TYPE": 0, "CLASSIFICATION_TYPE": "U", "NORAD_CAT_ID": 34560, "ELEMENT_SET_NO": 999, "REV_AT_EPOCH": 88462, "BSTAR": 0.002727, "MEAN_MOTION_DOT": 0.0001736, "MEAN_MOTION_DDOT": 0}, "tle": {"line1": "1 34560U 93036UW  25361.06106912  .00017360  00000+0  27270-2 0  9997", "line2": "2 34560  74.0165 114.2311 0013484 197.7057 339.8714 14.72514368884626"}}, "geometry": {"type": "Point", "coordinates": [97.69716082226488, -43.80095312220672]}}, {"type": "Feature", "properties": {"norad_id": 34563, "name": "COSMOS 2251 DEB", "group": "cosmos-2251-debris", "lat": 16.44908438252475, "lon": -8.433802877853942, "alt_km": 740.0333880204062, "timestamp": "2025-12-27T08:36:18.779258+00:00", "meta": {"OBJECT_NAME": "COSMOS 2251 DEB", "OBJECT_ID": "1993-036UZ", "EPOCH": "2025-12-26T18:37:48.023328", "MEAN_MOTION": 14.46553942, "ECCENTRICITY": 0.00139023, "INCLINATION": 74.0365, "RA_OF_ASC_NODE": 177.5011, "ARG_OF_PERICENTER": 270.8505, "MEAN_ANOMALY": 100.91, "EPHEMERIS_TYPE": 0, "CLASSIFICATION_TYPE": "U", "NORAD_CAT_ID": 34563, "ELEMENT_SET_NO": 999, "REV_AT_EPOCH": 88400, "BSTAR": 0.00049252066, "MEAN_MOTION_DOT": 1.75e-05, "MEAN_MOTION_DDOT": 0}, "tle": {"line1": "1 34563U 93036UZ  25360.77625027  .00001750  00000+0  49252-3 0  9991", "line2": "2 34563  74.0365 177.5011 0013902 270.8505 100.9100 14.46553942884006"}}, "geometry": {"type": "Point", "coordinates": [-8.433802877853942, 16.44908438252475]}}, {"type": "Feature", "properties": {"norad_id": 34564, "name": "COSMOS 2251 DEB", "group": "cosmos-2251-debris", "lat": -4.525380808964504, "lon": -150.33349634507508, "alt_km": 749.0784413634083, "timestamp": "2025-12-27T08:36:18.779268+00:00", "meta": {"OBJECT_NAME": "COSMOS 2251 DEB", "OBJECT_ID": "1993-036VA", "EPOCH": "2025-12-26T21:03:32.956128", "MEAN_MOTION": 14.40712431, "ECCENTRICITY": 0.0019493, "INCLINATION": 74.031, "RA_OF_ASC_NODE": 211.855, "ARG_OF_PERICENTER": 313.8248, "MEAN_ANOMALY": 67.2563, "EPHEMERIS_TYPE": 0, "CLASSIFICATION_TYPE": "U", "NORAD_CAT_ID": 34564, "ELEMENT_SET_NO": 999, "REV_AT_EPOCH": 88210, "BSTAR": 0.0002286667, "MEAN_MOTION_DOT": 7.06e-06, "MEAN_MOTION_DDOT": 0}, "tle": {"line1": "1 34564U 93036VA  25360.87746477  .00000706  00000+0  22867-3 0  9999", "line2": "2 34564  74.0310 211.8550 0019493 313.8248  67.2563 14.40712431882101"}}, "geometry": {"type": "Point", "coordinates": [-150.33349634507508, -4.525380808964504]}}, {"type": "Feature", "properties": {"norad_id": 34567, "name": "COSMOS 2251 DEB", "group": "cosmos-2251-debris", "lat": -60.60238083691768, "lon": -19.007605482846557, "alt_km": 779.6565466604106, "timestamp": "2025-12-27T08:36:18.779278+00:00", "meta": {"OBJECT_NAME": "COSMOS 2251 DEB", "OBJECT_ID": "1993-036VD", "EPOCH": "2025-12-26T18:30:40.311360", "MEAN_MOTION": 14.24032429, "ECCENTRICITY": 0.00740336, "INCLINATION": 74.0413, "RA_OF_ASC_NODE": 131.5262, "ARG_OF_PERICENTER": 202.7595, "MEAN_ANOMALY": 272.239, "EPHEMERIS_TYPE": 0, "CLASSIFICATION_TYPE": "U", "NORAD_CAT_ID": 34567, "ELEMENT_SET_NO": 999, "REV_AT_EPOCH": 87324, "BSTAR": 0.00027646321, "MEAN_MOTION_DOT": 6.28e-06, "MEAN_MOTION_DDOT": 0}, "tle": {"line1": "1 34567U 93036VD  25360.77129990  .00000628  00000+0  27646-3 0  9999", "line2": "2 34567  74.0413 131.5262 0074033 202.7595 272.2390 14.24032429873243"}}, "geometry": {"type": "Point", "coordinates": [-19.007605482846557, -60.60238083691768]}}, {"type": "Feature", "properties": {"norad_id": 34569, "name": "COSMOS 2251 DEB", "group": "cosmos-2251-debris", "lat": 73.88761900087889, "lon": -92.00614840092682, "alt_km": 809.870080968486, "timestamp": "2025-12-27T08:36:18.779288+00:00", "meta": {"OBJECT_NAME": "COSMOS 2251 DEB", "OBJECT_ID": "1993-036VF", "EPOCH": "2025-12-26T13:58:05.758176", "MEAN_MOTION": 14.24786035, "ECCENTRICITY": 0.015791, "INCLINATION": 73.9894, "RA_OF_ASC_NODE": 173.1059, "ARG_OF_PERICENTER": 358.3355, "MEAN_ANOMALY": 70.1274, "EPHEMERIS_TYPE": 0, "CLASSIFICATION_TYPE": "U", "NORAD_CAT_ID": 34569, "ELEMENT_SET_NO": 999, "REV_AT_EPOCH": 87165, "BSTAR": 0.00046481, "MEAN_MOTION_DOT": 1.207e-05, "MEAN_MOTION_DDOT": 0}, "tle": {"line1": "1 34569U 93036VF  25360.58201109  .00001207  00000+0  46481-3 0  9995", "line2": "2 34569  73.9894 173.1059 0157910 358.3355  70.1274 14.24786035871658"}}, "geometry": {"type": "Point", "coordinates": [-92.00614840092682, 73.88761900087889]}}, {"type": "Feature", "properties": {"norad_id": 34570, "name": "COSMOS 2251 DEB", "group": "cosmos-2251-debris", "lat": 27.245474882713552, "lon": 4.337395900915616, "alt_km": 864.7850827606699, "timestamp": "2025-12-27T08:36:18.779298+00:00", "meta": {"OBJECT_NAME": "COSMOS 2251 DEB", "OBJECT_ID": "1993-036VG", "EPOCH": "2025-12-27T00:02:12.355296", "MEAN_MOTION": 13.99844871, "ECCENTRICITY": 0.0190326, "INCLINATION": 73.9555, "RA_OF_ASC_NODE": 193.4797, "ARG_OF_PERICENTER": 72.7711, "MEAN_ANOMALY": 78.0663, "EPHEMERIS_TYPE": 0, "CLASSIFICATION_TYPE": "U", "NORAD_CAT_ID": 34570, "ELEMENT_SET_NO": 999, "REV_AT_EPOCH": 85800, "BSTAR": 0.00053485, "MEAN_MOTION_DOT": 8.94e-06, "MEAN_MOTION_DDOT": 0}, "tle": {"line1": "1 34570U 93036VG  25361.00153189  .00000894  00000+0  53485-3 0  9992", "line2": "2 34570  73.9555 193.4797 0190326  72.7711  78.0663 13.99844871858006"}}, "geometry": {"type": "Point", "coordinates": [4.337395900915616, 27.245474882713552]}}, {"type": "Feature", "properties": {"norad_id": 34571, "name": "COSMOS 2251 DEB", "group": "cosmos-2251-debris", "lat": 56.75337687170792, "lon": -179.08130851601558, "alt_km": 749.9993903002851, "timestamp": "2025-12-27T08:36:18.779308+00:00", "meta": {"OBJECT_NAME": "COSMOS 2251 DEB", "OBJECT_ID": "1993-036VH", "EPOCH": "2025-12-24T20:40:26.923008", "MEAN_MOTION": 14.49017935, "ECCENTRICITY": 0.0064888, "INCLINATION": 74.0401, "RA_OF_ASC_NODE": 159.7142, "ARG_OF_PERICENTER": 192.1385, "MEAN_ANOMALY": 167.8215, "EPHEMERIS_TYPE": 0, "CLASSIFICATION_TYPE": "U", "NORAD_CAT_ID": 34571, "ELEMENT_SET_NO": 999, "REV_AT_EPOCH": 87469, "BSTAR": 0.003002, "MEAN_MOTION_DOT": 0.00011689, "MEAN_MOTION_DDOT": 0}, "tle": {"line1": "1 34571U 93036VH  25358.86142272  .00011689  00000+0  30020-2 0  9997", "line2": "2 34571  74.0401 159.7142 0064888 192.1385 167.8215 14.49017935874697"}}, "geometry": {"type": "Point", "coordinates": [-179.08130851601558, 56.75337687170792]}}]}